NUSAT-49 (KLARA DAN VO*)
1 60500U 24149AJ  26068.79810190  .00012912  00000+0  43568-3 0  9991
2 60500  97.3807 150.7380 0001132 286.7761  73.3356 15.30828857 86935
STARLINK-35090          
1 65698U 25212Y   26068.03994938  .00014968  00000+0  51702-3 0  9998
2 65698  53.1621 348.7163 0001237 118.7965 241.3160 15.30164474 27142
